{"type": "FeatureCollection", "features": [ {"type": "Feature", "properties": {"norad_id": 66659, "name": "JACK K", "group": "last-30-days", "lat": -47.00954670220515, "lon": -75.49018353301686, "alt_km": 589.6133121669382, "timestamp": "2025-12-14T22:38:39.517884+00:00", "meta": {"OBJECT_NAME": "JACK K", "OBJECT_ID": "2025-274K", "EPOCH": "2025-12-14T06:46:11.972928", "MEAN_MOTION": 14.9282178, "ECCENTRICITY": 0.00119016, "INCLINATION": 97.7387, "RA_OF_ASC_NODE": 275.4715, "ARG_OF_PERICENTER": 274.5425, "MEAN_ANOMALY": 85.4434, "EPHEMERIS_TYPE": 0, "CLASSIFICATION_TYPE": "U", "NORAD_CAT_ID": 66659, "ELEMENT_SET_NO": 999, "REV_AT_EPOCH": 263, "BSTAR": 0.00038735335, "MEAN_MOTION_DOT": 3.957e-05, "MEAN_MOTION_DDOT": 0}, "tle": {"line1": "1 66659U 25274K   25348.28208302  .00003957  00000+0  38735-3 0  9991", "line2": "2 66659  97.7387 275.4715 0011901 274.5425  85.4434 14.92821780  2638"}}, "geometry": {"type": "Point", "coordinates": [-75.49018353301686, -47.00954670220515]}}, {"type": "Feature", "properties": {"norad_id": 66660, "name": "K-HERO", "group": "last-30-days", "lat": -37.330828046363926, "lon": -77.92031108575229, "alt_km": 589.4199144825907, "timestamp": "2025-12-14T22:38:39.517894+00:00", "meta": {"OBJECT_NAME": "K-HERO", "OBJECT_ID": "2025-274L", "EPOCH": "2025-12-14T06:43:39.323136", "MEAN_MOTION": 14.92970721, "ECCENTRICITY": 0.00125171, "INCLINATION": 97.7389, "RA_OF_ASC_NODE": 275.4745, "ARG_OF_PERICENTER": 275.0183, "MEAN_ANOMALY": 84.9607, "EPHEMERIS_TYPE": 0, "CLASSIFICATION_TYPE": "U", "NORAD_CAT_ID": 66660, "ELEMENT_SET_NO": 999, "REV_AT_EPOCH": 263, "BSTAR": 0.00036576832, "MEAN_MOTION_DOT": 3.748e-05, "MEAN_MOTION_DDOT": 0}, "tle": {"line1": "1 66660U 25274L   25348.28031624  .00003748  00000+0  36577-3 0  9994", "line2": "2 66660  97.7389 275.4745 0012517 275.0183  84.9607 14.92970721  2632"}}, "geometry": {"type": "Point", "coordinates": [-77.92031108575229, -37.330828046363926]}}, {"type": "Feature", "properties": {"norad_id": 66661, "name": "SNUGLITE-III", "group": "last-30-days", "lat": -27.757574652563253, "lon": -79.76557759661787, "alt_km": 589.1999504658243, "timestamp": "2025-12-14T22:38:39.517904+00:00", "meta": {"OBJECT_NAME": "SNUGLITE-III", "OBJECT_ID": "2025-274M", "EPOCH": "2025-12-14T06:41:08.601792", "MEAN_MOTION": 14.93107895, "ECCENTRICITY": 0.00132004, "INCLINATION": 97.7388, "RA_OF_ASC_NODE": 275.4762, "ARG_OF_PERICENTER": 276.291, "MEAN_ANOMALY": 83.6806, "EPHEMERIS_TYPE": 0, "CLASSIFICATION_TYPE": "U", "NORAD_CAT_ID": 66661, "ELEMENT_SET_NO": 999, "REV_AT_EPOCH": 263, "BSTAR": 0.0003143956, "MEAN_MOTION_DOT": 3.225e-05, "MEAN_MOTION_DDOT": 0}, "tle": {"line1": "1 66661U 25274M   25348.27857178  .00003225  00000+0  31440-3 0  9998", "line2": "2 66661  97.7388 275.4762 0013200 276.2910  83.6806 14.93107895  2634"}}, "geometry": {"type": "Point", "coordinates": [-79.76557759661787, -27.757574652563253]}}, {"type": "Feature", "properties": {"norad_id": 66662, "name": "2025-274N", "group": "last-30-days", "lat": -24.006126372106785, "lon": -80.39590634646268, "alt_km": 589.2032890923592, "timestamp": "2025-12-14T22:38:39.517914+00:00", "meta": {"OBJECT_NAME": "2025-274N", "OBJECT_ID": "2025-274N", "EPOCH": "2025-12-14T06:40:09.683904", "MEAN_MOTION": 14.9316159, "ECCENTRICITY": 0.00136411, "INCLINATION": 97.7389, "RA_OF_ASC_NODE": 275.4771, "ARG_OF_PERICENTER": 275.8148, "MEAN_ANOMALY": 84.1516, "EPHEMERIS_TYPE": 0, "CLASSIFICATION_TYPE": "U", "NORAD_CAT_ID": 66662, "ELEMENT_SET_NO": 999, "REV_AT_EPOCH": 263, "BSTAR": 0.00035762605, "MEAN_MOTION_DOT": 3.682e-05, "MEAN_MOTION_DDOT": 0}, "tle": {"line1": "1 66662U 25274N   25348.27788986  .00003682  00000+0  35763-3 0  9998", "line2": "2 66662  97.7389 275.4771 0013641 275.8148  84.1516 14.93161590  2639"}}, "geometry": {"type": "Point", "coordinates": [-80.39590634646268, -24.006126372106785]}}, {"type": "Feature", "properties": {"norad_id": 66663, "name": "KSLV-II R/B", "group": "last-30-days", "lat": -69.26094923106058, "lon": 75.21262136788566, "alt_km": 564.620636657085, "timestamp": "2025-12-14T22:38:39.517924+00:00", "meta": {"OBJECT_NAME": "KSLV-II R/B", "OBJECT_ID": "2025-274P", "EPOCH": "2025-12-14T07:05:20.920992", "MEAN_MOTION": 14.97323392, "ECCENTRICITY": 0.00533004, "INCLINATION": 97.7407, "RA_OF_ASC_NODE": 275.6236, "ARG_OF_PERICENTER": 314.3842, "MEAN_ANOMALY": 45.3021, "EPHEMERIS_TYPE": 0, "CLASSIFICATION_TYPE": "U", "NORAD_CAT_ID": 66663, "ELEMENT_SET_NO": 999, "REV_AT_EPOCH": 264, "BSTAR": 0.00057712069, "MEAN_MOTION_DOT": 6.834e-05, "MEAN_MOTION_DDOT": 0}, "tle": {"line1": "1 66663U 25274P   25348.29538103  .00006834  00000+0  57712-3 0  9995", "line2": "2 66663  97.7407 275.6236 0053300 314.3842  45.3021 14.97323392  2640"}}, "geometry": {"type": "Point", "coordinates": [75.21262136788566, -69.26094923106058]}}, {"type": "Feature", "properties": {"norad_id": 66664, "name": "SOYUZ-MS 28", "group": "last-30-days", "lat": 51.604415622413065, "lon": -137.2324072116254, "alt_km": 412.8419169155677, "timestamp": "2025-12-14T22:38:39.517934+00:00", "meta": {"OBJECT_NAME": "SOYUZ-MS 28", "OBJECT_ID": "2025-275A", "EPOCH": "2025-12-14T05:13:44.174496", "MEAN_MOTION": 15.49586484, "ECCENTRICITY": 0.00032642, "INCLINATION": 51.6305, "RA_OF_ASC_NODE": 135.1599, "ARG_OF_PERICENTER": 246.9077, "MEAN_ANOMALY": 113.1568, "EPHEMERIS_TYPE": 0, "CLASSIFICATION_TYPE": "U", "NORAD_CAT_ID": 66664, "ELEMENT_SET_NO": 999, "REV_AT_EPOCH": 128, "BSTAR": 0.00022198491, "MEAN_MOTION_DOT": 0.00012052, "MEAN_MOTION_DDOT": 0}, "tle": {"line1": "1 66664U 25275A   25348.21787239  .00012052  00000+0  22198-3 0  9994", "line2": "2 66664  51.6305 135.1599 0003264 246.9077 113.1568 15.49586484  1283"}}, "geometry": {"type": "Point", "coordinates": [-137.2324072116254, 51.604415622413065]}}, {"type": "Feature", "properties": {"norad_id": 66791, "name": "STARLINK-35867", "group": "last-30-days", "lat": 4.844258035554, "lon": -116.19283423827841, "alt_km": 325.51562952882705, "timestamp": "2025-12-14T22:38:39.518107+00:00", "meta": {"OBJECT_NAME": "STARLINK-35867", "OBJECT_ID": "2025-278A", "EPOCH": "2025-12-14T06:00:02.999808", "MEAN_MOTION": 15.83107481, "ECCENTRICITY": 0.0001964, "INCLINATION": 42.9972, "RA_OF_ASC_NODE": 242.8417, "ARG_OF_PERICENTER": 277.4625, "MEAN_ANOMALY": 94.7743, "EPHEMERIS_TYPE": 0, "CLASSIFICATION_TYPE": "U", "NORAD_CAT_ID": 66791, "ELEMENT_SET_NO": 999, "REV_AT_EPOCH": 320, "BSTAR": -0.0058634657, "MEAN_MOTION_DOT": -0.01161498, "MEAN_MOTION_DDOT": 0}, "tle": {"line1": "1 66791U 25278A   25348.25003472 -.01161498  00000+0 -58635-2 0  9998", "line2": "2 66791  42.9972 242.8417 0001964 277.4625  94.7743 15.83107481  3202"}}, "geometry": {"type": "Point", "coordinates": [-116.19283423827841, 4.844258035554]}}, {"type": "Feature", "properties": {"norad_id": 66792, "name": "STARLINK-35990", "group": "last-30-days", "lat": 6.093603264142134, "lon": -114.83686336347648, "alt_km": 325.37437182029043, "timestamp": "2025-12-14T22:38:39.518119+00:00", "meta": {"OBJECT_NAME": "STARLINK-35990", "OBJECT_ID": "2025-278B", "EPOCH": "2025-12-14T06:00:02.999808", "MEAN_MOTION": 15.83131283, "ECCENTRICITY": 0.00019974, "INCLINATION": 42.997, "RA_OF_ASC_NODE": 242.8373, "ARG_OF_PERICENTER": 276.6475, "MEAN_ANOMALY": 97.3827, "EPHEMERIS_TYPE": 0, "CLASSIFICATION_TYPE": "U", "NORAD_CAT_ID": 66792, "ELEMENT_SET_NO": 999, "REV_AT_EPOCH": 320, "BSTAR": -0.005888814, "MEAN_MOTION_DOT": -0.0116719, "MEAN_MOTION_DDOT": 0}, "tle": {"line1": "1 66792U 25278B   25348.25003472 -.01167190  00000+0 -58888-2 0  9994", "line2": "2 66792  42.9970 242.8373 0001997 276.6475  97.3827 15.83131283  3201"}}, "geometry": {"type": "Point", "coordinates": [-114.83686336347648, 6.093603264142134]}}, {"type": "Feature", "properties": {"norad_id": 66793, "name": "STARLINK-36051", "group": "last-30-days", "lat": 9.430530410259042, "lon": -111.15996439634709, "alt_km": 325.4175749047572, "timestamp": "2025-12-14T22:38:39.518131+00:00", "meta": {"OBJECT_NAME": "STARLINK-36051", "OBJECT_ID": "2025-278C", "EPOCH": "2025-12-14T06:00:02.999808", "MEAN_MOTION": 15.83100255, "ECCENTRICITY": 0.00019336, "INCLINATION": 42.9972, "RA_OF_ASC_NODE": 242.8243, "ARG_OF_PERICENTER": 274.3949, "MEAN_ANOMALY": 104.7636, "EPHEMERIS_TYPE": 0, "CLASSIFICATION_TYPE": "U", "NORAD_CAT_ID": 66793, "ELEMENT_SET_NO": 999, "REV_AT_EPOCH": 310, "BSTAR": -0.0061801534, "MEAN_MOTION_DOT": -0.01216844, "MEAN_MOTION_DDOT": 0}, "tle": {"line1": "1 66793U 25278C   25348.25003472 -.01216844  00000+0 -61802-2 0  9996", "line2": "2 66793  42.9972 242.8243 0001933 274.3949 104.7636 15.83100255  3106"}}, "geometry": {"type": "Point", "coordinates": [-111.15996439634709, 9.430530410259042]}}, {"type": "Feature", "properties": {"norad_id": 66794, "name": "STARLINK-36062", "group": "last-30-days", "lat": 7.924722427366761, "lon": -112.83086368388993, "alt_km": 325.3670140231625, "timestamp": "2025-12-14T22:38:39.518141+00:00", "meta": {"OBJECT_NAME": "STARLINK-36062", "OBJECT_ID": "2025-278D", "EPOCH": "2025-12-14T06:00:02.999808", "MEAN_MOTION": 15.83107092, "ECCENTRICITY": 0.00019461, "INCLINATION": 42.9972, "RA_OF_ASC_NODE": 242.8301, "ARG_OF_PERICENTER": 278.5676, "MEAN_ANOMALY": 98.3107, "EPHEMERIS_TYPE": 0, "CLASSIFICATION_TYPE": "U", "NORAD_CAT_ID": 66794, "ELEMENT_SET_NO": 999, "REV_AT_EPOCH": 320, "BSTAR": -0.0061103388, "MEAN_MOTION_DOT": -0.01204976, "MEAN_MOTION_DDOT": 0}, "tle": {"line1": "1 66794U 25278D   25348.25003472 -.01204976  00000+0 -61103-2 0  9994", "line2": "2 66794  42.9972 242.8301 0001946 278.5676  98.3107 15.83107092  3207"}}, "geometry": {"type": "Point", "coordinates": [-112.83086368388993, 7.924722427366761]}}]}